{
  "type": "FeatureCollection",
  "_readme": "STARTER (demo) — เส้น BTS สุขุมวิท ลากจากสถานีที่มีใน starter แบบหยาบ (ตัดตรงระหว่างสถานี ไม่ตามแนวจริง) ใช้ให้เห็นการแสดงเส้น+checkbox บนแผนที่ทันที. ต้องแทนด้วยแนวจริงจาก OSM/หน่วยงานก่อนใช้จริง.",
  "features": [
    {
      "type": "Feature",
      "properties": {"name": "BTS สายสุขุมวิท (โดยประมาณ)", "project_type": "rail", "certainty_level": 5, "colour": "#4CAF50", "_verify": "ลากหยาบจากสถานี — แทนด้วยแนวจริง"},
      "geometry": {
        "type": "LineString",
        "coordinates": [
          [100.5537, 13.8025],
          [100.5374, 13.7650],
          [100.5339, 13.7566],
          [100.5341, 13.7457],
          [100.5601, 13.7373],
          [100.5698, 13.7305],
          [100.6013, 13.7057]
        ]
      }
    }
  ]
}
